{
  "type": "FeatureCollection",
  "features": [
    {
      "type": "Feature",
      "properties": {
        "norad_id": 32376,
        "name": "COSMO-SKYMED 2",
        "group": "resource",
        "lat": -61.24995925045368,
        "lon": -166.0626780622217,
        "alt_km": 630.4403954498866,
        "timestamp": "2025-12-24T03:53:29.299007+00:00",
        "meta_object_name": "COSMO-SKYMED 2",
        "meta_object_id": "2007-059A",
        "meta_epoch": "2025-12-23T20:04:14.648160",
        "meta_mean_motion": 14.82155536,
        "meta_eccentricity": 0.0001311,
        "meta_inclination": 97.8805,
        "meta_ra_of_asc_node": 178.993,
        "meta_arg_of_pericenter": 82.5854,
        "meta_mean_anomaly": 277.5509,
        "meta_ephemeris_type": 0,
        "meta_classification_type": "U",
        "meta_norad_cat_id": 32376,
        "meta_element_set_no": 999,
        "meta_rev_at_epoch": 97602,
        "meta_bstar": 6.9933e-05,
        "meta_mean_motion_dot": 5.05e-06,
        "meta_mean_motion_ddot": 0,
        "tle_line1": "1 32376U 07059A   25357.83628065  .00000505  00000+0  69933-4 0  9995",
        "tle_line2": "2 32376  97.8805 178.9930 0001311  82.5854 277.5509 14.82155536976024"
      },
      "geometry": {
        "type": "Point",
        "coordinates": [
          -166.0626780622217,
          -61.24995925045368
        ]
      }
    },
    {
      "type": "Feature",
      "properties": {
        "norad_id": 32382,
        "name": "RADARSAT-2",
        "group": "resource",
        "lat": -80.1322092014299,
        "lon": 122.3758779687078,
        "alt_km": 799.9209305748946,
        "timestamp": "2025-12-24T03:53:29.299019+00:00",
        "meta_object_name": "RADARSAT-2",
        "meta_object_id": "2007-061A",
        "meta_epoch": "2025-12-23T21:37:03.178272",
        "meta_mean_motion": 14.29984456,
        "meta_eccentricity": 0.0001127,
        "meta_inclination": 98.5792,
        "meta_ra_of_asc_node": 2.3281,
        "meta_arg_of_pericenter": 85.8641,
        "meta_mean_anomaly": 274.2671,
        "meta_ephemeris_type": 0,
        "meta_classification_type": "U",
        "meta_norad_cat_id": 32382,
        "meta_element_set_no": 999,
        "meta_rev_at_epoch": 94090,
        "meta_bstar": 9.2276e-06,
        "meta_mean_motion_dot": -2e-07,
        "meta_mean_motion_ddot": 0,
        "tle_line1": "1 32382U 07061A   25357.90073123 -.00000020  00000+0  92276-5 0  9992",
        "tle_line2": "2 32382  98.5792   2.3281 0001127  85.8641 274.2671 14.29984456940902"
      },
      "geometry": {
        "type": "Point",
        "coordinates": [
          122.3758779687078,
          -80.1322092014299
        ]
      }
    },
    {
      "type": "Feature",
      "properties": {
        "norad_id": 32783,
        "name": "CARTOSAT-2A",
        "group": "resource",
        "lat": -53.665391587965956,
        "lon": 58.356500842638205,
        "alt_km": 632.4317436292031,
        "timestamp": "2025-12-24T03:53:29.299030+00:00",
        "meta_object_name": "CARTOSAT-2A",
        "meta_object_id": "2008-021A",
        "meta_epoch": "2025-12-23T20:01:03.735264",
        "meta_mean_motion": 14.78949237,
        "meta_eccentricity": 0.0011043,
        "meta_inclination": 97.7912,
        "meta_ra_of_asc_node": 47.3102,
        "meta_arg_of_pericenter": 327.7954,
        "meta_mean_anomaly": 32.2582,
        "meta_ephemeris_type": 0,
        "meta_classification_type": "U",
        "meta_norad_cat_id": 32783,
        "meta_element_set_no": 999,
        "meta_rev_at_epoch": 95288,
        "meta_bstar": 4.5823e-05,
        "meta_mean_motion_dot": 2.88e-06,
        "meta_mean_motion_ddot": 0,
        "tle_line1": "1 32783U 08021A   25357.83407101  .00000288  00000+0  45823-4 0  9993",
        "tle_line2": "2 32783  97.7912  47.3102 0011043 327.7954  32.2582 14.78949237952881"
      },
      "geometry": {
        "type": "Point",
        "coordinates": [
          58.356500842638205,
          -53.665391587965956
        ]
      }
    },
    {
      "type": "Feature",
      "properties": {
        "norad_id": 33320,
        "name": "HUANJING 1A (HJ-1A)",
        "group": "resource",
        "lat": -5.718527903172794,
        "lon": -13.244792542624536,
        "alt_km": 608.7816296614646,
        "timestamp": "2025-12-24T03:53:29.299041+00:00",
        "meta_object_name": "HUANJING 1A (HJ-1A)",
        "meta_object_id": "2008-041A",
        "meta_epoch": "2025-12-23T21:26:30.660288",
        "meta_mean_motion": 14.83426724,
        "meta_eccentricity": 0.0019322,
        "meta_inclination": 97.6545,
        "meta_ra_of_asc_node": 345.726,
        "meta_arg_of_pericenter": 359.0188,
        "meta_mean_anomaly": 1.0985,
        "meta_ephemeris_type": 0,
        "meta_classification_type": "U",
        "meta_norad_cat_id": 33320,
        "meta_element_set_no": 999,
        "meta_rev_at_epoch": 93241,
        "meta_bstar": 0.00015287,
        "meta_mean_motion_dot": 1.208e-05,
        "meta_mean_motion_ddot": 0,
        "tle_line1": "1 33320U 08041A   25357.89341042  .00001208  00000+0  15287-3 0  9993",
        "tle_line2": "2 33320  97.6545 345.7260 0019322 359.0188   1.0985 14.83426724932410"
      },
      "geometry": {
        "type": "Point",
        "coordinates": [
          -13.244792542624536,
          -5.718527903172794
        ]
      }
    },
    {
      "type": "Feature",
      "properties": {
        "norad_id": 33321,
        "name": "HUANJING 1B (HJ-1B)",
        "group": "resource",
        "lat": -12.00425779005263,
        "lon": 168.01488757247137,
        "alt_km": 648.2507421636055,
        "timestamp": "2025-12-24T03:53:29.299052+00:00",
        "meta_object_name": "HUANJING 1B (HJ-1B)",
        "meta_object_id": "2008-041B",
        "meta_epoch": "2025-12-23T20:33:08.880192",
        "meta_mean_motion": 14.8284703,
        "meta_eccentricity": 0.0037798,
        "meta_inclination": 97.6401,
        "meta_ra_of_asc_node": 349.3582,
        "meta_arg_of_pericenter": 40.4962,
        "meta_mean_anomaly": 319.9054,
        "meta_ephemeris_type": 0,
        "meta_classification_type": "U",
        "meta_norad_cat_id": 33321,
        "meta_element_set_no": 999,
        "meta_rev_at_epoch": 93242,
        "meta_bstar": 0.00011984,
        "meta_mean_motion_dot": 9.3e-06,
        "meta_mean_motion_ddot": 0,
        "tle_line1": "1 33321U 08041B   25357.85635278  .00000930  00000+0  11984-3 0  9998",
        "tle_line2": "2 33321  97.6401 349.3582 0037798  40.4962 319.9054 14.82847030932422"
      },
      "geometry": {
        "type": "Point",
        "coordinates": [
          168.01488757247137,
          -12.00425779005263
        ]
      }
    },
    {
      "type": "Feature",
      "properties": {
        "norad_id": 33331,
        "name": "GEOEYE 1",
        "group": "resource",
        "lat": 24.67622689165588,
        "lon": -106.93886020421478,
        "alt_km": 676.9802945070769,
        "timestamp": "2025-12-24T03:53:29.299062+00:00",
        "meta_object_name": "GEOEYE 1",
        "meta_object_id": "2008-042A",
        "meta_epoch": "2025-12-23T18:59:18.369312",
        "meta_mean_motion": 14.64714325,
        "meta_eccentricity": 0.0002938,
        "meta_inclination": 98.1238,
        "meta_ra_of_asc_node": 68.9321,
        "meta_arg_of_pericenter": 236.7366,
        "meta_mean_anomaly": 123.3555,
        "meta_ephemeris_type": 0,
        "meta_classification_type": "U",
        "meta_norad_cat_id": 33331,
        "meta_element_set_no": 999,
        "meta_rev_at_epoch": 92447,
        "meta_bstar": 0.00011091,
        "meta_mean_motion_dot": 5.43e-06,
        "meta_mean_motion_ddot": 0,
        "tle_line1": "1 33331U 08042A   25357.79118483  .00000543  00000+0  11091-3 0  9996",
        "tle_line2": "2 33331  98.1238  68.9321 0002938 236.7366 123.3555 14.64714325924477"
      },
      "geometry": {
        "type": "Point",
        "coordinates": [
          -106.93886020421478,
          24.67622689165588
        ]
      }
    },
    {
      "type": "Feature",
      "properties": {
        "norad_id": 33396,
        "name": "THEOS",
        "group": "resource",
        "lat": -20.500598614957504,
        "lon": 59.151875959990086,
        "alt_km": 830.5231966527599,
        "timestamp": "2025-12-24T03:53:29.299073+00:00",
        "meta_object_name": "THEOS",
        "meta_object_id": "2008-049A",
        "meta_epoch": "2025-12-23T21:13:30.025056",
        "meta_mean_motion": 14.20097552,
        "meta_eccentricity": 0.0001213,
        "meta_inclination": 98.5849,
        "meta_ra_of_asc_node": 55.6445,
        "meta_arg_of_pericenter": 92.7421,
        "meta_mean_anomaly": 267.3895,
        "meta_ephemeris_type": 0,
        "meta_classification_type": "U",
        "meta_norad_cat_id": 33396,
        "meta_element_set_no": 999,
        "meta_rev_at_epoch": 89308,
        "meta_bstar": -5.2988e-05,
        "meta_mean_motion_dot": -1.55e-06,
        "meta_mean_motion_ddot": 0,
        "tle_line1": "1 33396U 08049A   25357.88437529 -.00000155  00000+0 -52988-4 0  9991",
        "tle_line2": "2 33396  98.5849  55.6445 0001213  92.7421 267.3895 14.20097552893083"
      },
      "geometry": {
        "type": "Point",
        "coordinates": [
          59.151875959990086,
          -20.500598614957504
        ]
      }
    }
  ]
}